[{"OBJECT_NAME":"STARLINK-1954","OBJECT_ID":"2021-009H","EPOCH":"2026-03-09T23:20:25.352160","MEAN_MOTION":15.30849174,"ECCENTRICITY":0.00046184,"INCLINATION":53.0574,"RA_OF_ASC_NODE":8.8654,"ARG_OF_PERICENTER":103.3293,"MEAN_ANOMALY":256.8222,"EPHEMERIS_TYPE":0,"CLASSIFICATION_TYPE":"U","NORAD_CAT_ID":47555,"ELEMENT_SET_NO":999,"REV_AT_EPOCH":28100,"BSTAR":0.0022371791,"MEAN_MOTION_DOT":0.00067883,"MEAN_MOTION_DDOT":0},{"OBJECT_NAME":"STARLINK-35040","OBJECT_ID":"2025-195Y","EPOCH":"2026-03-09T19:44:21.139296","MEAN_MOTION":15.30190873,"ECCENTRICITY":8.846e-5,"INCLINATION":53.1567,"RA_OF_ASC_NODE":257.5646,"ARG_OF_PERICENTER":109.9313,"MEAN_ANOMALY":250.1783,"EPHEMERIS_TYPE":0,"CLASSIFICATION_TYPE":"U","NORAD_CAT_ID":65480,"ELEMENT_SET_NO":999,"REV_AT_EPOCH":2999,"BSTAR":0.00045987975,"MEAN_MOTION_DOT":0.00013282,"MEAN_MOTION_DDOT":0}]
